GALAXY 25 (G-25)        
1 24812U 97026A   24158.55552672 -.00000122  00000+0  00000+0 0  9992
2 24812   5.5145  76.2259 0012100 346.7430 217.7542  0.99094813 98885
INTELSAT 5 (IS-5)       
1 24916U 97046A   24158.53721375 -.00000069  00000+0  00000+0 0  9995
2 24916   8.7799  55.5635 0002230  64.2768 135.1293  1.00272151 98193
GALAXY 11 (G-11)        
1 26038U 99071A   24158.53831288 -.00000057  00000+0  00000+0 0  9994
2 26038   4.8293  79.3942 0000272 270.0754 266.0377  1.00271464 89651
INTELSAT 9 (IS-9)       
1 26451U 00043A   24157.89840941  .00000014  00000+0  00000+0 0  9990
2 26451   8.7640  55.7634 0002017  27.0410 137.1374  1.00377776 36710
INTELSAT 1R (IS-1R)     
1 26608U 00072A   24158.52991580 -.00000142  00000+0  00000+0 0  9996
2 26608   6.2410  72.8315 0000069  13.2253 157.2359  1.00271543 33892
INTELSAT 10 (IS-10)     
1 26766U 01019A   24158.58127433 -.00000366  00000+0  00000+0 0  9995
2 26766   7.3004  66.7545 0002899  17.7277 141.3236  1.00131767 38192
INTELSAT 901 (IS-901)   
1 26824U 01024A   24158.48652841 -.00000201  00000+0  00000+0 0  9999
2 26824   0.0500 133.7541 0000990 262.6837   6.6048  1.00263546 15552
INTELSAT 902 (IS-902)   
1 26900U 01039A   24158.26741699 -.00000283  00000+0  00000+0 0  9996
2 26900   4.2345  80.7655 0004674  19.1221 201.4756  1.00271303 83266
INTELSAT 904 (IS-904)   
1 27380U 02007A   24158.48618032 -.00000216  00000+0  00000+0 0  9999
2 27380   5.0549  77.9636 0002682  10.1296 312.8004  1.00271383 44337
DIRECTV 5 (TEMPO 1)     
1 27426U 02023A   24158.61416370 -.00000056  00000+0  00000+0 0  9996
2 27426   2.9755  84.5666 0003307   1.0306 280.8818  1.00271139 80691
INTELSAT 905 (IS-905)   
1 27438U 02027A   24158.18640976 -.00000186  00000+0  00000+0 0  9990
2 27438   4.8796  78.6259 0002346 347.2108 231.8444  1.00270998 43938
GALAXY 3C (G-3C)        
1 27445U 02030A   24158.54473463 -.00000151  00000+0  00000+0 0  9999
2 27445   1.8178  86.9461 0003045  34.8023 234.9552  1.00271757 39063
INTELSAT 906 (IS-906)   
1 27513U 02041A   24158.50480316  .00000012  00000+0  00000+0 0  9993
2 27513   3.9104  82.0138 0003751 353.7657  65.5098  1.00274092 79601
GALAXY 23 (G-23)        
1 27854U 03034A   24158.60614483  .00000014  00000+0  00000+0 0  9991
2 27854   1.2793  89.1753 0002667 344.9912 278.6637  1.00268923 76313
GALAXY 13 (HORIZONS-1)  
1 27954U 03044A   24158.57849937  .00000134  00000+0  00000+0 0  9996
2 27954   0.0416  88.7336 0001373 274.4109 310.5782  1.00270814 39142
INTELSAT 10-02          
1 28358U 04022A   24158.56335747 -.00000009  00000+0  00000+0 0  9992
2 28358   0.0191  10.4637 0000662  42.0471  44.7478  1.00272100 73133
XM-3 (RHYTHM)           
1 28626U 05008A   24158.39012830 -.00000203  00000+0  00000+0 0  9997
2 28626   0.0138 270.0756 0004225 319.5538  80.9292  1.00270750 35192
DIRECTV 8               
1 28659U 05019A   24158.60718451  .00000003  00000+0  00000+0 0  9998
2 28659   0.0191 350.5528 0002686  92.5216 271.9616  1.00268334 69642
GALAXY 28 (G-28)        
1 28702U 05022A   24158.54595295 -.00000184  00000+0  00000+0 0  9994
2 28702   1.3838  88.0698 0000862 210.7444  64.1832  1.00270864 44551
GALAXY 14 (G-14)        
1 28790U 05030A   24158.57014522  .00000154  00000+0  00000+0 0  9998
2 28790   3.1049  83.9568 0001128 342.0778  67.6053  1.00275080 68887
SPACEWAY 2              
1 28903U 05046B   24158.58871103  .00000102  00000+0  00000+0 0  9991
2 28903   3.5923  80.4210 0000268 258.5951 349.4978  1.00272095 43919
GALAXY 16 (G-16)        
1 29236U 06023A   24158.38661928 -.00000124  00000+0  00000+0 0  9992
2 29236   0.0556 129.2940 0002707 312.4904 213.6619  1.00270006 65540
DIRECTV 9S              
1 29494U 06043A   24158.62325441 -.00000112  00000+0  00000+0 0  9991
2 29494   0.5044  89.5788 0002637 354.9359 294.1633  1.00271234 43953
GALAXY 17 (G-17)        
1 31307U 07016B   24158.54673615 -.00000205  00000+0  00000+0 0  9991
2 31307   1.0912  89.4969 0003853   8.4530 269.2968  1.00270930 62375
DIRECTV 10              
1 31862U 07032A   24158.44315399 -.00000101  00000+0  00000+0 0  9991
2 31862   0.0147 172.1736 0000419  51.5370  88.3747  1.00271213 38168
INTELSAT 11 (IS-11)     
1 32253U 07044B   24158.41192519 -.00000267  00000+0  00000+0 0  9996
2 32253   1.6378  87.9140 0002962 354.1012 278.5769  1.00272006 61061
HORIZONS-2              
1 32388U 07063B   24158.54899874 -.00000252  00000+0  00000+0 0  9992
2 32388   0.6854  89.7812 0001693 342.0276 307.4840  1.00271630 60380
DIRECTV 11              
1 32729U 08013A   24158.40960066 -.00000123  00000+0  00000+0 0  9991
2 32729   0.0380 145.0681 0000768  20.8360 137.6619  1.00269850 38163
GALAXY 18 (G-18)        
1 32951U 08024A   24158.60349382  .00000027  00000+0  00000+0 0  9996
2 32951   0.0019   5.0423 0002738  71.3473 273.3512  1.00270965 38421
INTELSAT 25 (IS-25)     
1 33153U 08034A   24158.48583223 -.00000222  00000+0  00000+0 0  9990
2 33153   0.7929  89.4006 0002920 356.7861 312.5843  1.00270754 58263
GALAXY 19 (G-19)        
1 33376U 08045A   24158.62672875 -.00000137  00000+0  00000+0 0  9992
2 33376   0.0170   4.9840 0002592  70.0234 309.1279  1.00271791 57473
FM-5                    
1 35493U 09034A   24158.47495441 -.00000198  00000+0  00000+0 0  9995
2 35493   0.0136 309.8317 0001228 295.2130  95.1558  1.00270334 39210
INTELSAT 14 (IS-14)     
1 36097U 09064A   24158.48313453 -.00000271  00000+0  00000+0 0  9994
2 36097   0.0101 330.7722 0002233  97.8661 315.6679  1.00272831 53177
INTELSAT 15 (IS-15)     
1 36106U 09067A   24158.58023984 -.00000184  00000+0  00000+0 0  9999
2 36106   0.0169   5.9293 0002140  80.6734 102.9102  1.00271500 33802
DIRECTV 12              
1 36131U 09075A   24158.62204503 -.00000102  00000+0  00000+0 0  9999
2 36131   0.0465 136.7299 0000642 211.9374  28.0760  1.00271385 39133
INTELSAT 16 (IS-16)     
1 36397U 10006A   24158.52198900 -.00000243  00000+0  00000+0 0  9997
2 36397   0.0115  24.7843 0002015  80.8216 261.5203  1.00272075 52222
XM-5                    
1 37185U 10053A   24158.43632637 -.00000021  00000+0  00000+0 0  9999
2 37185   0.0163  44.1654 0000403 194.4674  58.5754  1.00270467 50053
INTELSAT 17 (IS-17)     
1 37238U 10065B   24158.62295241  .00000000  00000+0  00000+0 0  9994
2 37238   0.0083 333.7157 0002939 120.4091  91.6558  1.00271116 45816
INTELSAT NEW DAWN       
1 37392U 11016A   24158.49862455  .00000157  00000+0  00000+0 0  9997
2 37392   0.0346  96.1172 0001283 351.3434  20.2417  1.00271652 45865
INTELSAT 18 (IS-18)     
1 37834U 11056A   24158.55097646  .00000054  00000+0  00000+0 0  9997
2 37834   0.0180  12.0004 0001752  78.1403 183.6550  1.00270823 46383
INTELSAT 22 (IS-22)     
1 38098U 12011A   24158.26160581 -.00000058  00000+0  00000+0 0  9994
2 38098   0.0089  44.6805 0002025  40.8910 335.8861  1.00273305 44378
INTELSAT 19 (IS-19)     
1 38356U 12030A   24158.53698853 -.00000055  00000+0  00000+0 0  9997
2 38356   0.0173 348.7720 0002734  87.3820 178.6076  1.00270150 43012
INTELSAT 20 (IS-20)     
1 38740U 12043A   24158.26160581 -.00000023  00000+0  00000+0 0  9995
2 38740   0.0038 124.8624 0001377  59.1946 233.7613  1.00271615 43313
INTELSAT 21 (IS-21)     
1 38749U 12045A   24158.34213362 -.00000283  00000+0  00000+0 0  9999
2 38749   0.0239 286.5389 0001408 163.1145 230.7594  1.00270371 43099
INTELSAT 23 (IS-23)     
1 38867U 12057A   24158.23313196 -.00000282  00000+0  00000+0 0  9996
2 38867   0.0284 251.4120 0000777 132.5763 262.0920  1.00271068 42519
FM-6                    
1 39360U 13058A   24158.60946064 -.00000016  00000+0  00000+0 0  9999
2 39360   0.0031 359.3052 0000258 349.4985   9.9540  1.00275714 38635
INTELSAT 30 (IS-30)     
1 40271U 14062A   24158.47321395 -.00000149  00000+0  00000+0 0  9994
2 40271   0.0109   5.8310 0001582 326.6263 358.2056  1.00270254 35162
DIRECTV 14              
1 40333U 14078B   24158.51301056 -.00000124  00000+0  00000+0 0  9990
2 40333   0.0113 315.3993 0000203 339.2770  46.1796  1.00271682 34635
DIRECTV 15              
1 40663U 15026A   24157.61578531 -.00000100  00000+0  00000+0 0  9998
2 40663   0.0583  96.5524 0000389 143.4842 133.3070  1.00270294 33103
SKY MEXICO-1            
1 40664U 15026B   24158.16527760 -.00000232  00000+0  00000+0 0  9994
2 40664   0.0170   4.3496 0002331  95.3389 136.1076  1.00271436 33028
INTELSAT 34 (IS-34)     
1 40874U 15039A   24158.40668617 -.00000283  00000+0  00000+0 0  9991
2 40874   0.0234   7.7572 0000589 320.1138  18.3481  1.00270693 32190
INTELSAT 31 (IS-31)     
1 41581U 16035A   24158.54473463 -.00000149  00000+0  00000+0 0  9993
2 41581   0.0115  43.2753 0001163 154.1446 159.0613  1.00270245 29263
INTELSAT 36 (IS-36)     
1 41747U 16053A   24157.71848856 -.00000022  00000+0  00000+0 0  9997
2 41747   0.0134   5.4946 0001902 352.7080 223.5708  1.00271036 28511
INTELSAT 33E (IS-33E)   
1 41748U 16053B   24158.26716042  .00000050  00000+0  00000+0 0  9990
2 41748   0.0166   4.3600 0001537  85.8376 321.1542  1.00273793 28814
INTELSAT 32E (IS-32E)   
1 41945U 17007B   24158.41192519 -.00000267  00000+0  00000+0 0  9994
2 41945   0.0149  40.1989 0000441 264.2736  55.9373  1.00269348 26798
INTELSAT 35E (IS-35E)   
1 42818U 17041A   24156.76765632 -.00000234  00000+0  00000+0 0  9994
2 42818   0.0144  28.7846 0001557  42.1934  64.5694  1.00272476 25370
INTELSAT 37E (IS-37E)   
1 42950U 17059A   24158.07031595 -.00000139  00000+0  00000+0 0  9994
2 42950   0.0169   7.0543 0002204  80.6876 174.5184  1.00270414 24634
AZERSPACE 2 (IS-38)     
1 43632U 18074A   24158.50106118  .00000138  00000+0  00000+0 0  9990
2 43632   0.0173   3.1637 0001136  72.2786  45.4348  1.00272147 21021
HORIZONS-3E             
1 43633U 18074B   24156.56854970 -.00000027  00000+0  00000+0 0  9999
2 43633   0.0471 188.9937 0000552  76.7941   1.3900  1.00268601 20890
AT&T T-16               
1 44333U 19034A   24158.38512848 -.00000113  00000+0  00000+0 0  9997
2 44333   0.0181 329.9179 0001321 324.2608 358.8720  1.00269024 18209
INTELSAT 39 (IS-39)     
1 44476U 19049B   24155.92410413  .00000037  00000+0  00000+0 0  9997
2 44476   0.0141 332.3384 0000311 309.8036   5.3357  1.00273310 17685
GALAXY 30 (G-30)        
1 46114U 20056C   24157.81021750  .00000040  00000+0  00000+0 0  9994
2 46114   0.0154  29.1341 0001897  41.1007 351.1395  1.00269849 13859
GALAXY 33 (G-33)        
1 54026U 22128A   24158.19095203  .00000081  00000+0  00000+0 0  9998
2 54026   0.0161  12.4689 0001568  62.4564 115.9108  1.00273245  6324
GALAXY 34 (G-34)        
1 54027U 22128B   24158.12225979  .00000061  00000+0  00000+0 0  9995
2 54027   0.0205 340.5522 0001544  97.7834  91.7813  1.00271398  6488
GALAXY 31 (G-31)        
1 54243U 22153A   24157.81021750  .00000016  00000+0  00000+0 0  9999
2 54243   0.0146  32.4031 0001081  39.9770 353.0157  1.00272409  5698
GALAXY 32 (G-32)        
1 54244U 22153B   24158.38711384 -.00000172  00000+0  00000+0 0  9996
2 54244   0.0110 354.0290 0002132  42.1410 267.4642  1.00271253  5711
GALAXY 35 (G-35)        
1 54741U 22170A   24158.38881368 -.00000160  00000+0  00000+0 0  9994
2 54741   0.0157  32.2561 0001445  58.2776 211.6176  1.00271239  5468
GALAXY 36 (G-36)        
1 54742U 22170B   24158.32489339 -.00000183  00000+0  00000+0 0  9996
2 54742   0.0138 309.6288 0002611 141.2987 192.2481  1.00271542  5345
GALAXY 37 (G-37)        
1 57493U 23112A   24158.56352444  .00000050  00000+0  00000+0 0  9993
2 57493   0.0119   5.6036 0001732  62.2307 263.4930  1.00269906  3096
